start=new Date('2023-04-20T00:00:00.000Z').valueOf();
sats=[{"RCS_SIZE":"LARGE","EPHEMERIS_TYPE":"0","PERIAPSIS":"538.737","MEAN_MOTION":"15.08836572","SITE":"AFETR","APOAPSIS":"540.775","LAUNCH_DATE":"2022-05-06","MEAN_MOTION_DDOT":"0.0000000000000","TLE_LINE2":"2 52497  53.2161 105.2475 0001473 104.0606 256.0550 15.08836572 53122","MEAN_MOTION_DOT":"-0.00000137","NORAD_CAT_ID":"52497","OBJECT_TYPE":"PAYLOAD","GP_ID":"230395292","TLE_LINE1":"1 52497U 22049AY  23109.67870698 -.00000137  00000-0  94937-5 0  9999","CENTER_NAME":"EARTH","MEAN_ANOMALY":"256.0550","ELEMENT_SET_NO":"999","SEMIMAJOR_AXIS":"6917.891","FILE":"3890520","EPOCH":"2023-04-19T16:17:20.283072","REF_FRAME":"TEME","ARG_OF_PERICENTER":"104.0606","COUNTRY_CODE":"US","RA_OF_ASC_NODE":"105.2475","OBJECT_NAME":"STARLINK-3884","BSTAR":"0.00000949370000","MEAN_ELEMENT_THEORY":"SGP4","TIME_SYSTEM":"UTC","ECCENTRICITY":"0.00014730","REV_AT_EPOCH":"5312","DECAY_DATE":null,"INCLINATION":"53.2161","PERIOD":"95.438","CLASSIFICATION_TYPE":"U","OBJECT_ID":"2022-049AY"},{"RA_OF_ASC_NODE":"96.5496","REF_FRAME":"TEME","COUNTRY_CODE":"US","ARG_OF_PERICENTER":"93.9406","EPOCH":"2023-04-19T09:19:59.488608","FILE":"3890383","DECAY_DATE":null,"INCLINATION":"53.2171","OBJECT_ID":"2022-049AZ","CLASSIFICATION_TYPE":"U","PERIOD":"95.435","TIME_SYSTEM":"UTC","ECCENTRICITY":"0.00014220","MEAN_ELEMENT_THEORY":"SGP4","REV_AT_EPOCH":"5321","OBJECT_NAME":"STARLINK-3925","BSTAR":"0.00052261000000","MEAN_MOTION_DDOT":"0.0000000000000","MEAN_MOTION_DOT":"0.00008047","TLE_LINE2":"2 52498  53.2171  96.5496 0001422  93.9406 266.1749 15.08874918 53215","APOAPSIS":"540.622","LAUNCH_DATE":"2022-05-06","MEAN_MOTION":"15.08874918","SITE":"AFETR","PERIAPSIS":"538.655","RCS_SIZE":"LARGE","EPHEMERIS_TYPE":"0","ELEMENT_SET_NO":"999","MEAN_ANOMALY":"266.1749","SEMIMAJOR_AXIS":"6917.774","CENTER_NAME":"EARTH","TLE_LINE1":"1 52498U 22049AZ  23109.38888297  .00008047  00000-0  52261-3 0  9991","GP_ID":"230367325","OBJECT_TYPE":"PAYLOAD","NORAD_CAT_ID":"52498"},{"SEMIMAJOR_AXIS":"6917.888","MEAN_ANOMALY":"262.9094","ELEMENT_SET_NO":"999","CENTER_NAME":"EARTH","OBJECT_TYPE":"PAYLOAD","TLE_LINE1":"1 52499U 22049BA  23109.67502669  .00000036  00000-0  20360-4 0  9996","GP_ID":"230396294","NORAD_CAT_ID":"52499","TLE_LINE2":"2 52499  53.2157 105.2627 0001249  97.2040 262.9094 15.08837521 53128","MEAN_MOTION_DOT":"0.00000036","MEAN_MOTION_DDOT":"0.0000000000000","LAUNCH_DATE":"2022-05-06","APOAPSIS":"540.617","SITE":"AFETR","MEAN_MOTION":"15.08837521","RCS_SIZE":"LARGE","EPHEMERIS_TYPE":"0","PERIAPSIS":"538.889","PERIOD":"95.438","CLASSIFICATION_TYPE":"U","OBJECT_ID":"2022-049BA","DECAY_DATE":null,"INCLINATION":"53.2157","REV_AT_EPOCH":"5312","MEAN_ELEMENT_THEORY":"SGP4","TIME_SYSTEM":"UTC","ECCENTRICITY":"0.00012490","BSTAR":"0.00002036000000","OBJECT_NAME":"STARLINK-3894","RA_OF_ASC_NODE":"105.2627","COUNTRY_CODE":"US","ARG_OF_PERICENTER":"97.2040","REF_FRAME":"TEME","FILE":"3890520","EPOCH":"2023-04-19T16:12:02.306016"},{"REF_FRAME":"TEME","COUNTRY_CODE":"US","ARG_OF_PERICENTER":"86.1804","RA_OF_ASC_NODE":"95.3757","EPOCH":"2023-04-19T15:36:16.205184","FILE":"3890520","TIME_SYSTEM":"UTC","ECCENTRICITY":"0.00014210","MEAN_ELEMENT_THEORY":"SGP4","REV_AT_EPOCH":"5325","INCLINATION":"53.2167","DECAY_DATE":null,"CLASSIFICATION_TYPE":"U","OBJECT_ID":"2022-049BB","PERIOD":"95.438","OBJECT_NAME":"STARLINK-3866","BSTAR":"0.00008794800000","APOAPSIS":"540.731","LAUNCH_DATE":"2022-05-06","MEAN_MOTION_DDOT":"0.0000000000000","TLE_LINE2":"2 52500  53.2167  95.3757 0001421  86.1804 273.9351 15.08839026 53256","MEAN_MOTION_DOT":"0.00001112","PERIAPSIS":"538.765","EPHEMERIS_TYPE":"0","RCS_SIZE":"LARGE","MEAN_MOTION":"15.08839026","SITE":"AFETR","CENTER_NAME":"EARTH","ELEMENT_SET_NO":"999","MEAN_ANOMALY":"273.9351","SEMIMAJOR_AXIS":"6917.883","NORAD_CAT_ID":"52500","TLE_LINE1":"1 52500U 22049BB  23109.65018756  .00001112  00000-0  87948-4 0  9997","GP_ID":"230396044","OBJECT_TYPE":"PAYLOAD"},{"TLE_LINE1":"1 52501U 22049BC  23109.71916498  .00001018  00000-0  82015-4 0  9990","GP_ID":"230394793","OBJECT_TYPE":"PAYLOAD","NORAD_CAT_ID":"52501","SEMIMAJOR_AXIS":"6917.878","ELEMENT_SET_NO":"999","MEAN_ANOMALY":"275.6742","CENTER_NAME":"EARTH","SITE":"AFETR","MEAN_MOTION":"15.08840699","PERIAPSIS":"538.759","EPHEMERIS_TYPE":"0","RCS_SIZE":"LARGE","MEAN_MOTION_DOT":"0.00001018","TLE_LINE2":"2 52501  53.2158 104.8603 0001423  84.4413 275.6742 15.08840699 53130","MEAN_MOTION_DDOT":"0.0000000000000","LAUNCH_DATE":"2022-05-06","APOAPSIS":"540.728","BSTAR":"0.00008201500000","OBJECT_NAME":"STARLINK-3907","CLASSIFICATION_TYPE":"U","OBJECT_ID":"2022-049BC","PERIOD":"95.438","INCLINATION":"53.2158","DECAY_DATE":null,"REV_AT_EPOCH":"5313","ECCENTRICITY":"0.00014230","TIME_SYSTEM":"UTC","MEAN_ELEMENT_THEORY":"SGP4","EPOCH":"2023-04-19T17:15:35.854272","FILE":"3890520","RA_OF_ASC_NODE":"104.8603","COUNTRY_CODE":"US","ARG_OF_PERICENTER":"84.4413","REF_FRAME":"TEME"},{"FILE":"3890205","EPOCH":"2023-04-19T09:05:30.287328","REF_FRAME":"TEME","COUNTRY_CODE":"US","ARG_OF_PERICENTER":"93.5143","RA_OF_ASC_NODE":"96.5955","OBJECT_NAME":"STARLINK-3912","BSTAR":"0.00006195900000","MEAN_ELEMENT_THEORY":"SGP4","TIME_SYSTEM":"UTC","ECCENTRICITY":"0.00013870","REV_AT_EPOCH":"5337","DECAY_DATE":null,"INCLINATION":"53.2188","PERIOD":"95.438","OBJECT_ID":"2022-049BD","CLASSIFICATION_TYPE":"U","EPHEMERIS_TYPE":"0","RCS_SIZE":"LARGE","PERIAPSIS":"538.788","MEAN_MOTION":"15.08839265","SITE":"AFETR","APOAPSIS":"540.707","LAUNCH_DATE":"2022-05-06","MEAN_MOTION_DDOT":"0.0000000000000","MEAN_MOTION_DOT":"0.00000698","TLE_LINE2":"2 52502  53.2188  96.5955 0001387  93.5143 266.6008 15.08839265 53379","NORAD_CAT_ID":"52502","OBJECT_TYPE":"PAYLOAD","GP_ID":"230339750","TLE_LINE1":"1 52502U 22049BD  23109.37882277  .00000698  00000-0  61959-4 0  9997","CENTER_NAME":"EARTH","MEAN_ANOMALY":"266.6008","ELEMENT_SET_NO":"999","SEMIMAJOR_AXIS":"6917.883"},{"RCS_SIZE":"LARGE","EPHEMERIS_TYPE":"0","PERIAPSIS":"538.899","SITE":"AFETR","MEAN_MOTION":"15.08845333","LAUNCH_DATE":"2022-05-06","APOAPSIS":"540.559","TLE_LINE2":"2 52503  53.2160  96.8783 0001200  90.0258 270.0871 15.08845333 53207","MEAN_MOTION_DOT":"0.00002089","MEAN_MOTION_DDOT":"0.0000000000000","NORAD_CAT_ID":"52503","OBJECT_TYPE":"PAYLOAD","GP_ID":"230366084","TLE_LINE1":"1 52503U 22049BE  23109.31530220  .00002089  00000-0  14929-3 0  9990","CENTER_NAME":"EARTH","SEMIMAJOR_AXIS":"6917.864","MEAN_ANOMALY":"270.0871","ELEMENT_SET_NO":"999","FILE":"3890383","EPOCH":"2023-04-19T07:34:02.110080","ARG_OF_PERICENTER":"90.0258","COUNTRY_CODE":"US","REF_FRAME":"TEME","RA_OF_ASC_NODE":"96.8783","BSTAR":"0.00014929000000","OBJECT_NAME":"STARLINK-3861","REV_AT_EPOCH":"5320","MEAN_ELEMENT_THEORY":"SGP4","TIME_SYSTEM":"UTC","ECCENTRICITY":"0.00012000","PERIOD":"95.437","CLASSIFICATION_TYPE":"U","OBJECT_ID":"2022-049BE","DECAY_DATE":null,"INCLINATION":"53.2160"},{"MEAN_ANOMALY":"271.3129","ELEMENT_SET_NO":"999","SEMIMAJOR_AXIS":"6922.867","CENTER_NAME":"EARTH","OBJECT_TYPE":"PAYLOAD","GP_ID":"230342730","TLE_LINE1":"1 52533U 22051A   23109.57495457  .00000290  00000-0  37656-4 0  9991","NORAD_CAT_ID":"52533","MEAN_MOTION_DDOT":"0.0000000000000","TLE_LINE2":"2 52533  53.2173 185.7726 0001478  88.8031 271.3129 15.07210183 52229","MEAN_MOTION_DOT":"0.00000290","APOAPSIS":"545.755","LAUNCH_DATE":"2022-05-13","MEAN_MOTION":"15.07210183","SITE":"AFWTR","EPHEMERIS_TYPE":"0","RCS_SIZE":"LARGE","PERIAPSIS":"543.708","INCLINATION":"53.2173","DECAY_DATE":null,"PERIOD":"95.541","CLASSIFICATION_TYPE":"U","OBJECT_ID":"2022-051A","MEAN_ELEMENT_THEORY":"SGP4","TIME_SYSTEM":"UTC","ECCENTRICITY":"0.00014780","REV_AT_EPOCH":"5222","OBJECT_NAME":"STARLINK-3951","BSTAR":"0.00003765600000","RA_OF_ASC_NODE":"185.7726","REF_FRAME":"TEME","ARG_OF_PERICENTER":"88.8031","COUNTRY_CODE":"US","FILE":"3890348","EPOCH":"2023-04-19T13:47:56.074848"},{"REV_AT_EPOCH":"5289","TIME_SYSTEM":"UTC","ECCENTRICITY":"0.00015060","MEAN_ELEMENT_THEORY":"SGP4","OBJECT_ID":"2022-051B","CLASSIFICATION_TYPE":"U","PERIOD":"95.437","DECAY_DATE":null,"INCLINATION":"53.2170","BSTAR":"0.00019780000000","OBJECT_NAME":"STARLINK-3952","COUNTRY_CODE":"US","ARG_OF_PERICENTER":"84.3397","REF_FRAME":"TEME","RA_OF_ASC_NODE":"185.7094","EPOCH":"2023-04-19T13:48:57.451680","FILE":"3890383","CENTER_NAME":"EARTH","SEMIMAJOR_AXIS":"6917.863","ELEMENT_SET_NO":"999","MEAN_ANOMALY":"275.7767","NORAD_CAT_ID":"52534","GP_ID":"230366834","TLE_LINE1":"1 52534U 22051B   23109.57566495  .00002862  00000-0  19780-3 0  9997","OBJECT_TYPE":"PAYLOAD","LAUNCH_DATE":"2022-05-13","APOAPSIS":"540.770","MEAN_MOTION_DOT":"0.00002862","TLE_LINE2":"2 52534  53.2170 185.7094 0001506  84.3397 275.7767 15.08845623 52896","MEAN_MOTION_DDOT":"0.0000000000000","PERIAPSIS":"538.686","RCS_SIZE":"LARGE","EPHEMERIS_TYPE":"0","SITE":"AFWTR","MEAN_MOTION":"15.08845623"},{"EPOCH":"2023-04-19T13:43:39.354528","FILE":"3890348","COUNTRY_CODE":"US","ARG_OF_PERICENTER":"95.6220","REF_FRAME":"TEME","RA_OF_ASC_NODE":"185.7258","BSTAR":"0.00090557000000","OBJECT_NAME":"STARLINK-3958","REV_AT_EPOCH":"5222","TIME_SYSTEM":"UTC","ECCENTRICITY":"0.00013800","MEAN_ELEMENT_THEORY":"SGP4","CLASSIFICATION_TYPE":"U","OBJECT_ID":"2022-051C","PERIOD":"95.437","DECAY_DATE":null,"INCLINATION":"53.2165","PERIAPSIS":"538.753","RCS_SIZE":"LARGE","EPHEMERIS_TYPE":"0","SITE":"AFWTR","MEAN_MOTION":"15.08852374","LAUNCH_DATE":"2022-05-13","APOAPSIS":"540.662","MEAN_MOTION_DOT":"0.00014158","TLE_LINE2":"2 52535  53.2165 185.7258 0001380  95.6220 264.4930 15.08852374 52228","MEAN_MOTION_DDOT":"0.0000000000000","NORAD_CAT_ID":"52535","TLE_LINE1":"1 52535U 22051C   23109.57198327  .00014158  00000-0  90557-3 0  9995","GP_ID":"230342720","OBJECT_TYPE":"PAYLOAD","CENTER_NAME":"EARTH","SEMIMAJOR_AXIS":"6917.843","ELEMENT_SET_NO":"999","MEAN_ANOMALY":"264.4930"}];
